OSCAR 7 (AO-7)          
1 07530U 74089B   24096.62165736 -.00000022  00000+0  15417-3 0  9995
2 07530 101.9776  90.5951 0011952 221.7266 251.7951 12.53673905259941
PHASE 3B (AO-10)        
1 14129U 83058B   24091.19228368 -.00000463  00000+0  00000+0 0  9998
2 14129  27.4626 351.4335 6033484 256.7152  33.1297  2.05869748278838
UOSAT 2 (UO-11)         
1 14781U 84021B   24096.52723696  .00001679  00000+0  19664-3 0  9998
2 14781  97.6987  68.0307 0007093 327.1978  32.8797 14.86303275137690
LUSAT (LO-19)           
1 20442U 90005G   24096.56390490  .00000233  00000+0  10098-3 0  9991
2 20442  98.8800  84.9367 0012481  42.8738 317.3416 14.33478587787379
EYESAT A (AO-27)        
1 22825U 93061C   24096.58369639  .00000123  00000+0  64823-4 0  9990
2 22825  98.7971 148.5753 0007367 293.9890  66.0521 14.30452354592230
ITAMSAT (IO-26)         
1 22826U 93061D   24096.58150001  .00000141  00000+0  71069-4 0  9992
2 22826  98.7918 148.4354 0007825 276.8794  83.1498 14.30829258592515
RADIO ROSTO (RS-15)     
1 23439U 94085A   24096.56557581 -.00000040  00000+0  84001-4 0  9991
2 23439  64.8156 161.2136 0152287 157.4903 203.2794 11.27576149205408
JAS-2 (FO-29)           
1 24278U 96046B   24096.58555391 -.00000003  00000+0  32656-4 0  9999
2 24278  98.5747  40.7722 0350538  16.4829 344.7374 13.53179153364611
TECHSAT 1B (GO-32)      
1 25397U 98043D   24096.44543033  .00000124  00000+0  74054-4 0  9997
2 25397  98.9146  62.1125 0001870  44.8779 315.2550 14.24011376337066
ISS (ZARYA)             
1 25544U 98067A   24096.86038194  .00012576  00000+0  22841-3 0  9990
2 25544  51.6407 313.9962 0004704  41.6420 134.2803 15.49940740447324
PCSAT (NO-44)           
1 26931U 01043C   24096.52970624  .00000185  00000+0  10138-3 0  9994
2 26931  67.0504 159.2515 0005914 281.2892  78.7545 14.31167676175713
SAUDISAT 1C (SO-50)     
1 27607U 02058C   24096.36755762  .00001376  00000+0  20530-3 0  9998
2 27607  64.5531  85.3055 0033160 146.5776 213.7430 14.78570374145559
CUTE-1 (CO-55)          
1 27844U 03031E   24096.53771822  .00000426  00000+0  20788-3 0  9997
2 27844  98.6800 104.5783 0009685   3.1680 356.9558 14.23149091 77450
CUBESAT XI-IV (CO-57)   
1 27848U 03031J   24096.51403135  .00000362  00000+0  18125-3 0  9999
2 27848  98.6829 104.8395 0009962  18.7834 341.3710 14.22606881 77203
MOZHAYETS 4 (RS-22)     
1 27939U 03042A   24096.64160971  .00001381  00000+0  24100-3 0  9996
2 27939  98.2812 251.7506 0011068 290.8731 129.4415 14.69569243 97498
CUBESAT XI-V            
1 28895U 05043F   24096.62416803  .00001915  00000+0  34862-3 0  9996
2 28895  98.1890 232.4214 0015317 223.3248 136.6753 14.67193807983814
CUTE-1.7+APD II (CO-65) 
1 32785U 08021C   24096.45577677  .00005074  00000+0  46137-3 0  9994
2 32785  97.7481  62.4815 0010464 197.5780 162.5081 14.95621129864608
SEEDS II (CO-66)        
1 32791U 08021J   24096.49915896  .00007156  00000+0  55055-3 0  9996
2 32791  97.6862  68.2082 0006566 155.6531 204.5005 15.01974343865683
YUBILEINY (RS-30)       
1 32953U 08025A   24096.55859030  .00000050  00000+0  29059-3 0  9995
2 32953  82.5005 134.6666 0018083 262.3181  97.5845 12.43138262719961
KKS-1 (KISEKI)          
1 33499U 09002H   24096.60370176  .00001528  00000+0  21735-3 0  9996
2 33499  98.1454 357.4132 0008941  14.2773 345.8688 14.78344828817391
SWISSCUBE               
1 35932U 09051B   24096.39602425  .00001126  00000+0  25166-3 0  9991
2 35932  98.4816 338.2347 0007219 173.3370 186.7925 14.58735823771945
BEESAT-1                
1 35933U 09051C   24096.38846590  .00000974  00000+0  22006-3 0  9994
2 35933  98.4745 339.2286 0005285 183.0952 177.0215 14.58513689772013
ITUPSAT1                
1 35935U 09051E   24096.62615091  .00000867  00000+0  20142-3 0  9993
2 35935  98.4842 339.2926 0007401 192.8126 167.2884 14.57494762771692
XIWANG-1 (HOPE-1)       
1 36122U 09072B   24096.60577137 -.00000008  00000+0  93700-4 0  9990
2 36122 100.2871  56.8081 0006838 270.6205  89.4125 13.16398013687409
JUGNU                   
1 37839U 11058B   24096.46978816  .00000503  00000+0  12457-3 0  9994
2 37839  19.9601 143.2594 0018605 213.8603 276.2704 14.13156412645314
SRMSAT                  
1 37841U 11058D   24096.64418881  .00000463  00000+0  10856-3 0  9994
2 37841  19.9719 235.5301 0011920  17.4974  86.0864 14.11069250644303
M-CUBED & EXP-1 PRIME   
1 37855U 11061F   24096.34900249  .00103450  00000+0  13046-2 0  9997
2 37855 101.6862 235.5156 0067150 209.5674 150.1762 15.56495535681626
STRAND-1                
1 39090U 13009E   24096.53453376  .00000420  00000+0  15939-3 0  9996
2 39090  98.3834 286.8200 0010018 107.8053 252.4227 14.35961884581814
ZACUBE-1 (TSHEPISOSAT)  
1 39417U 13066B   24096.59878345  .00004744  00000+0  50769-3 0  9998
2 39417  97.7269  54.2825 0053042  42.1991 318.3290 14.88140127560780
GOMX-1                  
1 39430U 13066Q   24096.59794828  .00001876  00000+0  31983-3 0  9996
2 39430  97.7437 335.3635 0142576 123.1736 238.3236 14.63589368552242
CUBEBUG-2 (LO-74)       
1 39440U 13066AA  24096.57207809  .00002951  00000+0  35914-3 0  9996
2 39440  97.8076  41.8884 0072024 150.0458 210.4907 14.82355414557579
FUNCUBE-1 (AO-73)       
1 39444U 13066AE  24096.62334863  .00006907  00000+0  69259-3 0  9991
2 39444  97.7123  57.2602 0050170  24.5137 335.8450 14.90705134559294
UWE-3                   
1 39446U 13066AG  24096.37556696  .00003533  00000+0  40546-3 0  9995
2 39446  97.7740  47.7556 0063631  98.4504 262.3930 14.85029569557893
SPROUT                  
1 39770U 14029E   24096.36197026  .00063799  00000+0  23159-2 0  9992
2 39770  98.0072 242.4427 0001700 317.2619  42.8486 15.28070754536461
UNISAT-6                
1 40012U 14033C   24096.43841928  .00003529  00000+0  47216-3 0  9999
2 40012  97.6954 261.8988 0053696 181.3631 178.7443 14.79080279527086
DUCHIFAT-1              
1 40021U 14033M   24096.47637401  .00010901  00000+0  77592-3 0  9994
2 40021  98.0875  76.7336 0012865 357.5297   2.5862 15.04758514533181
QB50P1                  
1 40025U 14033R   24096.59352124  .00005807  00000+0  49329-3 0  9993
2 40025  98.0348  55.0774 0011773  44.5499 315.6667 14.98236304532001
KAITUO 1A               
1 40904U 15049F   24096.58992282  .00028363  00000+0  69488-3 0  9991
2 40904  97.4913 111.1767 0007965 197.1978 162.8999 15.40680423473242
2015-049G               
1 40905U 15049G   24096.54989419  .00008581  00000+0  32980-3 0  9993
2 40905  97.5259 104.9757 0010485 230.6024 129.4287 15.26626187472623
XW-2C                   
1 40906U 15049H   24096.55027705  .00020357  00000+0  55078-3 0  9994
2 40906  97.4853 111.7112 0009030 187.3541 172.7573 15.37692699473296
XW-2D                   
1 40907U 15049J   24096.60667380  .00028711  00000+0  65277-3 0  9994
2 40907  97.4802 113.6296 0008316 172.6173 187.5198 15.42925854473485
LILACSAT-2              
1 40908U 15049K   24096.58314885  .00007395  00000+0  30207-3 0  9991
2 40908  97.5278 104.8478 0010959 239.8874 120.1277 15.24632697472422
XW-2B                   
1 40911U 15049N   24096.60272126  .00027760  00000+0  64281-3 0  9996
2 40911  97.4778 113.8189 0008328 174.6636 185.4701 15.42383933473353
E-ST@R-II               
1 41459U 16025D   24096.58774076  .00246144  00000+0  15081-2 0  9999
2 41459  98.1336 339.2259 0041461 133.0893 227.3852 15.75396071438201
AIST-2D (RS-48)         
1 41465U 16026B   24096.58398981  .00441622  95699-4  56090-3 0  9991
2 41465  96.9267 332.8065 0005494 165.0743 195.0703 16.07422315446062
CAS-2T & KS-1Q          
1 41847U 16066G   24096.47514327  .00001345  00000+0  20474-3 0  9999
2 41847  98.4652 168.3101 0355814  36.4528 326.0328 14.40964797389021
ZHUHAI-1 02 (CAS-4B)    
1 42759U 17034B   24096.56013025  .00013425  00000+0  53249-3 0  9995
2 42759  43.0118 276.1180 0013180 234.3898 125.5725 15.25184401376308
ZHUHAI-1 01 (CAS-4A)    
1 42761U 17034D   24096.56739889  .00013033  00000+0  51526-3 0  9992
2 42761  43.0148 274.4776 0012238 239.6253 120.3388 15.25325154376302
MAX VALIER SAT          
1 42778U 17036P   24096.37032937  .00080889  00000+0  82717-3 0  9990
2 42778  97.1134 132.9335 0007200 117.3066 242.8928 15.64737911378113
RADFXSAT (FOX-1B)       
1 43017U 17073E   24096.58251701  .00006363  00000+0  40778-3 0  9999
2 43017  97.5899 334.6913 0216179 175.7744 184.5369 14.91547139344836
DIWATA-2B               
1 43678U 18084H   24096.59207109  .00001974  00000+0  18682-3 0  9991
2 43678  98.0622 252.5161 0007908 271.3729  88.6584 14.94841880296074
ES'HAIL 2               
1 43700U 18090A   24096.55952258  .00000135  00000+0  00000+0 0  9991
2 43700   0.0203 229.0663 0001175 168.5399  23.9829  1.00268510 19628
FOX-1CLIFF (AO-95)      
1 43770U 18099N   24096.10568059  .00006052  00000+0  43883-3 0  9994
2 43770  97.5546 155.5642 0013368 248.0598 111.9208 15.04228122291577
ITASAT                  
1 43786U 18099AE  24096.59115066  .00004691  00000+0  35224-3 0  9997
2 43786  97.5162 155.9404 0017196 237.8557 122.1001 15.02972333291665
JY1SAT (JO-97)          
1 43803U 18099AX  24096.10578906  .00006960  00000+0  48609-3 0  9992
2 43803  97.5293 156.4657 0010577 185.5921 174.5190 15.05605251291694
UWE-4                   
1 43880U 18111E   24096.16977979  .00007072  00000+0  46775-3 0  9998
2 43880  97.6166   2.5105 0015274 256.5905 103.3620 15.07581664288426
JAISAT-1                
1 44419U 19038F   24096.53800064  .00115319  00000+0  12778-2 0  9996
2 44419  97.6828  98.7227 0004180   5.1579 354.9720 15.62585347263747
DUCHIFAT-3              
1 44854U 19089C   24096.43326355  .00010241  00000+0  56280-3 0  9995
2 44854  36.9578 129.8096 0009650 213.5746 146.4389 15.13552822237234
TIANYAN 01              
1 44881U 19093C   24096.53802452  .00001071  00000+0  13668-3 0  9992
2 44881  97.8310 174.7288 0014171 195.2117 164.8672 14.83440002232278
RS-44 & BREEZE-KM R/B   
1 44909U 19096E   24096.55932451  .00000023  00000+0  52132-4 0  9997
2 44909  82.5220 153.0359 0216782 220.7621 137.7087 12.79728281199682
